METOP-C                 
1 43689U 18087A   26189.18422638  .00000063  00000+0  48724-4 0  9991
2 43689  98.6633 248.4030 0002202 102.7632 257.3792 14.21517735397814
GEO-KOMPSAT-2A          
1 43823U 18100A   26188.95460777 -.00000328  00000+0  00000+0 0  9992
2 43823   0.0277 152.2719 0002290 309.6064 295.9585  1.00271978 27834
METEOR-M2 2             
1 44387U 19038A   26189.24823280  .00000098  00000+0  62202-4 0  9994
2 44387  98.9159 176.8454 0001155  16.8578 343.2639 14.24371552364299
ARKTIKA-M 1             
1 47719U 21016A   26187.93041206 -.00000246  00000+0  00000+0 0  9998
2 47719  63.2564  54.7781 7294848 270.0184  14.5557  2.00615031 39188
FENGYUN 3E              
1 49008U 21062A   26189.20082878  .00000337  00000+0  17945-3 0  9994
2 49008  98.7501 192.3747 0002523  51.2324 308.9077 14.19907009259566
GOES 18                 
1 51850U 22021A   26188.97341450  .00000112  00000+0  00000+0 0  9996
2 51850   0.0081 185.3358 0000562 351.8450 322.1729  1.00271486  6801
NOAA 21 (JPSS-2)        
1 54234U 22150A   26189.17963238  .00000021  00000+0  30379-4 0  9991
2 54234  98.7061 127.6162 0002661 117.1438 243.0010 14.19540290189526
METEOSAT-12 (MTG-I1)    
1 54743U 22170C   26188.71532159  .00000007  00000+0  00000+0 0  9998
2 54743   0.7171  18.3212 0003972  82.3437  82.3271  1.00266664 13183
TIANMU-1 03             
1 55973U 23039A   26188.80588590  .00009958  00000+0  19308-3 0  9998
2 55973  97.5247   3.5917 0003194  45.1577 314.9932 15.47892574184024
TIANMU-1 04             
1 55974U 23039B   26188.85189282  .00010466  00000+0  19851-3 0  9998
2 55974  97.5180   2.7955 0003710  39.3565 320.7955 15.48511315184044
TIANMU-1 05             
1 55975U 23039C   26188.85230753  .00010522  00000+0  20442-3 0  9990
2 55975  97.5225   3.2477 0003552  65.3288 294.8332 15.47816773184017
TIANMU-1 06             
1 55976U 23039D   26188.85659186  .00010377  00000+0  19753-3 0  9997
2 55976  97.5232   3.9089 0003707  58.6286 301.5326 15.48409455184045
FENGYUN 3G              
1 56232U 23055A   26188.69506436  .00015570  00000+0  24641-3 0  9994
2 56232  49.9916 240.2815 0007222  22.5556 337.5727 15.53556033183190
METEOR-M2 3             
1 57166U 23091A   26188.82583586 -.00000024  00000+0  82300-5 0  9994
2 57166  98.6077 243.3807 0005111 106.7340 253.4400 14.24048507157455
TIANMU-1 07             
1 57399U 23101A   26188.83351539  .00004160  00000+0  14554-3 0  9994
2 57399  97.2582 239.0292 0004137  79.5121 280.6586 15.30056949164801
TIANMU-1 08             
1 57400U 23101B   26188.86550027  .00004293  00000+0  15008-3 0  9995
2 57400  97.2571 238.8280 0005183  65.1014 295.0765 15.30061485164800
TIANMU-1 09             
1 57401U 23101C   26188.84845159  .00004318  00000+0  15077-3 0  9991
2 57401  97.2529 238.2167 0004721  81.2770 278.9005 15.30100289164800
TIANMU-1 10             
1 57402U 23101D   26188.88186959  .00004344  00000+0  15174-3 0  9999
2 57402  97.2608 239.3208 0006144  73.5095 286.6821 15.30073539164801
FENGYUN 3F              
1 57490U 23111A   26188.83191861  .00000013  00000+0  26540-4 0  9999
2 57490  98.6828 258.4552 0001404  79.9133 280.2201 14.19942632151799
ARKTIKA-M 2             
1 58584U 23198A   26187.70098855  .00000205  00000+0  00000+0 0  9994
2 58584  63.2193 152.1833 6907948 267.3642  18.7597  2.00609243 18712
TIANMU-1 11             
1 58645U 23205A   26188.89070081  .00003581  00000+0  13694-3 0  9990
2 58645  97.3447 210.1243 0006856 295.2806  64.7723 15.27213964140682
TIANMU-1 12             
1 58646U 23205B   26188.86228822  .00003859  00000+0  14817-3 0  9992
2 58646  97.3435 209.8462 0005481 268.7232  91.3379 15.27043822140664
TIANMU-1 13             
1 58647U 23205C   26188.89569441  .00003634  00000+0  13972-3 0  9993
2 58647  97.3463 210.1565 0005174 244.5017 115.5687 15.27036485140665
TIANMU-1 14             
1 58648U 23205D   26188.88029694  .00003713  00000+0  14250-3 0  9992
2 58648  97.3399 209.3069 0005868 252.4804 107.5794 15.27080575140664
TIANMU-1 19             
1 58660U 23208A   26188.86524387  .00005788  00000+0  19048-3 0  9990
2 58660  97.4514 305.2768 0003926 227.7671 132.3238 15.31898701140493
TIANMU-1 20             
1 58661U 23208B   26188.88699696  .00005654  00000+0  17933-3 0  9992
2 58661  97.4457 305.9556 0005785 242.1734 117.8923 15.33087833140596
TIANMU-1 21             
1 58662U 23208C   26188.84381686  .00006375  00000+0  18736-3 0  9999
2 58662  97.4517 308.6832 0006053 233.1966 126.8723 15.35458978140735
TIANMU-1 22             
1 58663U 23208D   26188.85416606  .00005239  00000+0  17559-3 0  9992
2 58663  97.4511 305.1839 0002296 257.1243 102.9741 15.31356904140498
TIANMU-1 15             
1 58700U 24004A   26188.87290388  .00003704  00000+0  14317-3 0  9992
2 58700  97.4675  15.0637 0005680 260.7143  99.3453 15.26863172138932
TIANMU-1 16             
1 58701U 24004B   26188.86286439  .00003771  00000+0  14528-3 0  9992
2 58701  97.4622  14.2743 0004313 281.1131  78.9622 15.26966053138933
TIANMU-1 17             
1 58702U 24004C   26188.84833703  .00004000  00000+0  15392-3 0  9999
2 58702  97.4649  14.7523 0003886 288.9459  71.1358 15.26964430138923
TIANMU-1 18             
1 58703U 24004D   26188.82401899  .00003530  00000+0  13652-3 0  9999
2 58703  97.4667  14.9898 0003386 260.9616  99.1240 15.26880386138928
INSAT-3DS               
1 58990U 24033A   26188.73161645 -.00000141  00000+0  00000+0 0  9996
2 58990   0.0828  95.4405 0001090  21.1281 154.5766  1.00272405 47278
METEOR-M2 4             
1 59051U 24039A   26188.86397491  .00000011  00000+0  24754-4 0  9997
2 59051  98.7021 147.9032 0008170 106.9876 253.2198 14.22431674122209
GOES 19                 
1 60133U 24119A   26188.62906119 -.00000233  00000+0  00000+0 0  9996
2 60133   0.0305 235.5803 0000468 309.4803 251.8029  1.00271713  7167
MTG-S1                  
1 64723U 25143A   26188.71523492  .00000007  00000+0  00000+0 0  9990
2 64723   0.5888 343.2699 0003284 262.2372 297.2108  1.00272532  3622
METOP-SGA1              
1 65159U 25172A   26188.71730619  .00000019  00000+0  29373-4 0  9999
2 65159  98.6633 248.0109 0007484 354.8269   5.2829 14.19818396 46700
FENGYUN 3H              
1 65815U 25219A   26188.82856618  .00000027  00000+0  33149-4 0  9995
2 65815  98.6771 129.1966 0001300  63.8305 296.3005 14.19924017 40319
OSCAR 7 (AO-7)          
1 07530U 74089B   26189.04087645 -.00000046  00000+0  35790-5 0  9992
2 07530 101.9901 202.5047 0012665  91.5455 288.7781 12.53698398363138
PHASE 3B (AO-10)        
1 14129U 83058B   26187.30639496  .00000240  00000+0  00000+0 0  9999
2 14129  25.9287 216.4111 6004451 120.9204 311.3694  2.05868973295883
UOSAT 2 (UO-11)         
1 14781U 84021B   26188.89405927  .00000895  00000+0  96543-4 0  9997
2 14781  97.8070 154.2393 0009113 111.3965 248.8226 14.90836121260219
LUSAT (LO-19)           
1 20442U 90005G   26189.04277025  .00000061  00000+0  38362-4 0  9991
2 20442  98.8846 211.4224 0012259 140.9212 219.2860 14.34129247905381
EYESAT A (AO-27)        
1 22825U 93061C   26188.76721503  .00000059  00000+0  39561-4 0  9995
2 22825  98.6871 256.1724 0009140  46.1655 314.0282 14.30947768709946
ITAMSAT (IO-26)         
1 22826U 93061D   26188.74048494  .00000065  00000+0  41184-4 0  9996
2 22826  98.6819 256.0652 0009383  30.3812 329.7913 14.31375237710254
RADIO ROSTO (RS15)      
1 23439U 94085A   26188.69185014 -.00000037  00000+0  16351-3 0  9995
2 23439  64.8165 270.0555 0156645   0.0918   0.0010 11.27583446298216
JAS-2 (FO-29)           
1 24278U 96046B   26188.79062142 -.00000010  00000+0  24150-4 0  9991
2 24278  98.5224  34.8386 0350647  43.1200 319.6844 13.53275077475957
TECHSAT 1B (GO-32)      
1 25397U 98043D   26187.94313305  .00000041  00000+0  37960-4 0  9995
2 25397  99.0077 181.2008 0001942 128.2186 231.9167 14.24432204454147
ISS (ZARYA)             
1 25544U 98067A   26188.50835634  .00005806  00000+0  11369-3 0  9990
2 25544  51.6304 199.5144 0006687 267.6545  92.3678 15.48933372574901
PCSAT (NO-44)           
1 26931U 01043C   26187.71597949  .00000106  00000+0  70598-4 0  9993
2 26931  67.0487 193.7609 0005988 265.9645  94.0772 14.31962724293245
SAUDISAT 1C (SO-50)     
1 27607U 02058C   26188.78930017  .00000682  00000+0  98050-4 0  9998
2 27607  64.5519  65.2417 0074738 258.6284 100.6419 14.83089167267512
CUTE-1 (CO-55)          
1 27844U 03031E   26188.47926414  .00000234  00000+0  12008-3 0  9996
2 27844  98.6738 196.7829 0010633 122.6531 237.5676 14.24348198194568
CUBESAT XI-IV (CO-57)   
1 27848U 03031J   26188.47791579  .00000195  00000+0  10456-3 0  9993
2 27848  98.6771 196.4779 0010210 139.6848 220.5090 14.23631593194262
MOZHAETS 4 (RS22)       
1 27939U 03042A   26188.86521019  .00000986  00000+0  15996-3 0  9991
2 27939  98.3479  13.8090 0010646 197.1198 273.8580 14.73507176218595
CUBESAT XI-V            
1 28895U 05043F   26187.90288029  .00001301  00000+0  21205-3 0  9993
2 28895  98.3006 343.9413 0014933 139.5987 220.6332 14.72686848104657
CUTE-1.7+APD II (CO-65) 
1 32785U 08021C   26188.79755797  .00002899  00000+0  18422-3 0  9994
2 32785  97.8287 170.6484 0007526 329.8758  30.2036 15.09655904988306
SEEDS II (CO-66)        
1 32791U 08021J   26187.97759589  .00013488  00000+0  41928-3 0  9996
2 32791  97.7526 186.8299 0002094 175.3299 184.7963 15.33467667990323
YUBILEINY (RS30)        
1 32953U 08025A   26189.18371587  .00000052  00000+0  30596-3 0  9995
2 32953  82.5059 342.3779 0018516 265.3032  94.5933 12.43180440822305
KKS-1 (KISEKI)          
1 33499U 09002H   26189.03583273  .00000977  00000+0  12655-3 0  9990
2 33499  98.1180 111.8085 0006869 214.3199 145.7571 14.83177129939283
SWISSCUBE               
1 35932U 09051B   26189.17253486  .00000734  00000+0  15442-3 0  9991
2 35932  98.4017  97.4251 0007478 138.1087 222.0687 14.62521876892227
